start=new Date('2022-04-07T00:00:00.000Z').valueOf();
sats=[{"OBJECT_NAME":"STARLINK-3261","ECCENTRICITY":"0.00016380","APOAPSIS":"513.294","PERIOD":"94.867","TIME_SYSTEM":"UTC","TLE_LINE1":"1 50193U 21125AP  22096.91667824 -.00723260  00000-0 -37818-1 0  9991","RA_OF_ASC_NODE":"191.2929","PERIAPSIS":"511.037","MEAN_ANOMALY":"96.6934","INCLINATION":"53.2173","OBJECT_ID":"2021-125AP","FILE":"3391320","CLASSIFICATION_TYPE":"U","MEAN_MOTION_DDOT":"0.0000000000000","ARG_OF_PERICENTER":"49.1922","EPOCH":"2022-04-06T22:00:00.999936","OBJECT_TYPE":"PAYLOAD","SEMIMAJOR_AXIS":"6890.300","COUNTRY_CODE":"US","DECAY_DATE":null,"MEAN_MOTION":"15.17908340","GP_ID":"200626273","REV_AT_EPOCH":"366","NORAD_CAT_ID":"50193","REF_FRAME":"TEME","BSTAR":"-0.03781800000000","TLE_LINE2":"2 50193  53.2173 191.2929 0001638  49.1922  96.6934 15.17908340  3669","ELEMENT_SET_NO":"999","LAUNCH_DATE":"2021-12-18","CENTER_NAME":"EARTH","MEAN_ELEMENT_THEORY":"SGP4","EPHEMERIS_TYPE":"0","SITE":"AFWTR","RCS_SIZE":"LARGE","MEAN_MOTION_DOT":"-0.00723260"},{"REV_AT_EPOCH":"366","GP_ID":"200627524","MEAN_MOTION":"15.18412491","DECAY_DATE":null,"COUNTRY_CODE":"US","SEMIMAJOR_AXIS":"6888.775","MEAN_MOTION_DOT":"-0.00724594","RCS_SIZE":"LARGE","MEAN_ELEMENT_THEORY":"SGP4","EPHEMERIS_TYPE":"0","SITE":"AFWTR","LAUNCH_DATE":"2021-12-18","CENTER_NAME":"EARTH","TLE_LINE2":"2 50194  53.2173 191.2935 0001534  59.8500 154.9940 15.18412491  3665","ELEMENT_SET_NO":"999","BSTAR":"-0.03734400000000","REF_FRAME":"TEME","NORAD_CAT_ID":"50194","TLE_LINE1":"1 50194U 21125AQ  22096.91667824 -.00724594  00000-0 -37344-1 0  9997","TIME_SYSTEM":"UTC","APOAPSIS":"511.697","PERIOD":"94.836","ECCENTRICITY":"0.00015340","OBJECT_NAME":"STARLINK-3269","EPOCH":"2022-04-06T22:00:00.999936","OBJECT_TYPE":"PAYLOAD","MEAN_MOTION_DDOT":"0.0000000000000","ARG_OF_PERICENTER":"59.8500","FILE":"3391320","CLASSIFICATION_TYPE":"U","OBJECT_ID":"2021-125AQ","INCLINATION":"53.2173","RA_OF_ASC_NODE":"191.2935","PERIAPSIS":"509.583","MEAN_ANOMALY":"154.9940"},{"RCS_SIZE":"LARGE","SITE":"AFWTR","EPHEMERIS_TYPE":"0","MEAN_ELEMENT_THEORY":"SGP4","MEAN_MOTION_DOT":"-0.00723532","BSTAR":"-0.03769600000000","REF_FRAME":"TEME","NORAD_CAT_ID":"50195","CENTER_NAME":"EARTH","LAUNCH_DATE":"2021-12-18","ELEMENT_SET_NO":"999","TLE_LINE2":"2 50195  53.2173 191.2931 0001562  56.3590 106.8220 15.18034377  3664","MEAN_MOTION":"15.18034377","REV_AT_EPOCH":"366","GP_ID":"200627275","SEMIMAJOR_AXIS":"6889.919","DECAY_DATE":null,"COUNTRY_CODE":"US","ARG_OF_PERICENTER":"56.3590","MEAN_MOTION_DDOT":"0.0000000000000","OBJECT_TYPE":"PAYLOAD","EPOCH":"2022-04-06T22:00:00.999936","INCLINATION":"53.2173","MEAN_ANOMALY":"106.8220","PERIAPSIS":"510.708","RA_OF_ASC_NODE":"191.2931","FILE":"3391320","CLASSIFICATION_TYPE":"U","OBJECT_ID":"2021-125AR","TIME_SYSTEM":"UTC","PERIOD":"94.860","APOAPSIS":"512.860","TLE_LINE1":"1 50195U 21125AR  22096.91667824 -.00723532  00000-0 -37696-1 0  9999","ECCENTRICITY":"0.00015620","OBJECT_NAME":"STARLINK-3266"},{"RCS_SIZE":"LARGE","MEAN_ELEMENT_THEORY":"SGP4","EPHEMERIS_TYPE":"0","SITE":"AFWTR","MEAN_MOTION_DOT":"-0.00725510","BSTAR":"-0.03712000000000","REF_FRAME":"TEME","NORAD_CAT_ID":"50196","LAUNCH_DATE":"2021-12-18","CENTER_NAME":"EARTH","TLE_LINE2":"2 50196  53.2173 191.2933 0001838  41.0972 208.0026 15.18664658  3668","ELEMENT_SET_NO":"999","MEAN_MOTION":"15.18664658","REV_AT_EPOCH":"366","GP_ID":"200626023","SEMIMAJOR_AXIS":"6888.012","DECAY_DATE":null,"COUNTRY_CODE":"US","MEAN_MOTION_DDOT":"0.0000000000000","ARG_OF_PERICENTER":"41.0972","EPOCH":"2022-04-06T22:00:00.999936","OBJECT_TYPE":"PAYLOAD","INCLINATION":"53.2173","RA_OF_ASC_NODE":"191.2933","MEAN_ANOMALY":"208.0026","PERIAPSIS":"508.611","FILE":"3391320","CLASSIFICATION_TYPE":"U","OBJECT_ID":"2021-125AS","TIME_SYSTEM":"UTC","APOAPSIS":"511.143","PERIOD":"94.820","TLE_LINE1":"1 50196U 21125AS  22096.91667824 -.00725510  00000-0 -37120-1 0  9990","ECCENTRICITY":"0.00018380","OBJECT_NAME":"STARLINK-3263"},{"MEAN_MOTION_DOT":"-0.00724945","RCS_SIZE":"LARGE","SITE":"AFWTR","EPHEMERIS_TYPE":"0","MEAN_ELEMENT_THEORY":"SGP4","CENTER_NAME":"EARTH","LAUNCH_DATE":"2021-12-18","ELEMENT_SET_NO":"999","TLE_LINE2":"2 50197  53.2173 191.2934 0001537  59.5214 172.4691 15.18538515  3663","BSTAR":"-0.03722700000000","REF_FRAME":"TEME","NORAD_CAT_ID":"50197","REV_AT_EPOCH":"366","GP_ID":"200626773","MEAN_MOTION":"15.18538515","DECAY_DATE":null,"COUNTRY_CODE":"US","SEMIMAJOR_AXIS":"6888.394","OBJECT_TYPE":"PAYLOAD","EPOCH":"2022-04-06T22:00:00.999936","ARG_OF_PERICENTER":"59.5214","MEAN_MOTION_DDOT":"0.0000000000000","FILE":"3391320","CLASSIFICATION_TYPE":"U","OBJECT_ID":"2021-125AT","INCLINATION":"53.2173","PERIAPSIS":"509.200","MEAN_ANOMALY":"172.4691","RA_OF_ASC_NODE":"191.2934","TLE_LINE1":"1 50197U 21125AT  22096.91667824 -.00724945  00000-0 -37227-1 0  9990","TIME_SYSTEM":"UTC","PERIOD":"94.828","APOAPSIS":"511.318","ECCENTRICITY":"0.00015370","OBJECT_NAME":"STARLINK-3267"},{"ARG_OF_PERICENTER":"40.8173","MEAN_MOTION_DDOT":"0.0000000000000","EPOCH":"2022-04-06T22:00:00.999936","OBJECT_TYPE":"PAYLOAD","RA_OF_ASC_NODE":"191.2923","MEAN_ANOMALY":"259.3872","PERIAPSIS":"507.536","INCLINATION":"53.2174","OBJECT_ID":"2021-125AU","CLASSIFICATION_TYPE":"U","FILE":"3391320","APOAPSIS":"509.933","PERIOD":"94.797","TIME_SYSTEM":"UTC","TLE_LINE1":"1 50198U 21125AU  22096.91667824 -.00726491  00000-0 -36768-1 0  9998","OBJECT_NAME":"STARLINK-3264","ECCENTRICITY":"0.00017400","MEAN_ELEMENT_THEORY":"SGP4","SITE":"AFWTR","EPHEMERIS_TYPE":"0","RCS_SIZE":"LARGE","MEAN_MOTION_DOT":"-0.00726491","REF_FRAME":"TEME","NORAD_CAT_ID":"50198","BSTAR":"-0.03676800000000","TLE_LINE2":"2 50198  53.2174 191.2923 0001740  40.8173 259.3872 15.19042653  3666","ELEMENT_SET_NO":"999","LAUNCH_DATE":"2021-12-18","CENTER_NAME":"EARTH","MEAN_MOTION":"15.19042653","GP_ID":"200627025","REV_AT_EPOCH":"366","SEMIMAJOR_AXIS":"6886.870","COUNTRY_CODE":"US","DECAY_DATE":null},{"TIME_SYSTEM":"UTC","PERIOD":"94.908","APOAPSIS":"515.277","TLE_LINE1":"1 50199U 21125AV  22096.91667824 -.00723802  00000-0 -38560-1 0  9994","ECCENTRICITY":"0.00016800","OBJECT_NAME":"STARLINK-3270","ARG_OF_PERICENTER":"41.4551","MEAN_MOTION_DDOT":"0.0000000000000","OBJECT_TYPE":"PAYLOAD","EPOCH":"2022-04-06T22:00:00.999936","INCLINATION":"53.2174","PERIAPSIS":"512.961","MEAN_ANOMALY":"37.7194","RA_OF_ASC_NODE":"191.2845","CLASSIFICATION_TYPE":"U","FILE":"3391320","OBJECT_ID":"2021-125AV","MEAN_MOTION":"15.17263037","REV_AT_EPOCH":"366","GP_ID":"200627775","SEMIMAJOR_AXIS":"6892.254","DECAY_DATE":null,"COUNTRY_CODE":"US","RCS_SIZE":"LARGE","SITE":"AFWTR","EPHEMERIS_TYPE":"0","MEAN_ELEMENT_THEORY":"SGP4","MEAN_MOTION_DOT":"-0.00723802","BSTAR":"-0.03856000000000","REF_FRAME":"TEME","NORAD_CAT_ID":"50199","CENTER_NAME":"EARTH","LAUNCH_DATE":"2021-12-18","ELEMENT_SET_NO":"999","TLE_LINE2":"2 50199  53.2174 191.2845 0001680  41.4551  37.7194 15.17263037  3664"},{"CLASSIFICATION_TYPE":"U","FILE":"3391320","OBJECT_ID":"2021-125AW","INCLINATION":"53.2169","MEAN_ANOMALY":"231.3011","PERIAPSIS":"508.295","RA_OF_ASC_NODE":"191.2919","OBJECT_TYPE":"PAYLOAD","EPOCH":"2022-04-06T22:00:00.999936","ARG_OF_PERICENTER":"34.8909","MEAN_MOTION_DDOT":"0.0000000000000","ECCENTRICITY":"0.00019200","OBJECT_NAME":"STARLINK-3235","TLE_LINE1":"1 50200U 21125AW  22096.91667824 -.00669004  00000-0 -33952-1 0  9990","TIME_SYSTEM":"UTC","PERIOD":"94.815","APOAPSIS":"510.940","CENTER_NAME":"EARTH","LAUNCH_DATE":"2021-12-18","ELEMENT_SET_NO":"999","TLE_LINE2":"2 50200  53.2169 191.2919 0001920  34.8909 231.3011 15.18750528  3615","BSTAR":"-0.03395200000000","NORAD_CAT_ID":"50200","REF_FRAME":"TEME","MEAN_MOTION_DOT":"-0.00669004","RCS_SIZE":"LARGE","EPHEMERIS_TYPE":"0","SITE":"AFWTR","MEAN_ELEMENT_THEORY":"SGP4","DECAY_DATE":null,"COUNTRY_CODE":"US","SEMIMAJOR_AXIS":"6887.753","REV_AT_EPOCH":"361","GP_ID":"200626523","MEAN_MOTION":"15.18750528"},{"OBJECT_NAME":"STARLINK-3255","ECCENTRICITY":"0.00015730","TLE_LINE1":"1 50201U 21125AX  22096.91667824 -.00726378  00000-0 -36635-1 0  9990","PERIOD":"94.789","APOAPSIS":"509.456","TIME_SYSTEM":"UTC","OBJECT_ID":"2021-125AX","FILE":"3391320","CLASSIFICATION_TYPE":"U","PERIAPSIS":"507.290","MEAN_ANOMALY":"271.0900","RA_OF_ASC_NODE":"191.2916","INCLINATION":"53.2174","OBJECT_TYPE":"PAYLOAD","EPOCH":"2022-04-06T22:00:00.999936","ARG_OF_PERICENTER":"46.2251","MEAN_MOTION_DDOT":"0.0000000000000","COUNTRY_CODE":"US","DECAY_DATE":null,"SEMIMAJOR_AXIS":"6886.508","GP_ID":"200626274","REV_AT_EPOCH":"366","MEAN_MOTION":"15.19162264","ELEMENT_SET_NO":"999","TLE_LINE2":"2 50201  53.2174 191.2916 0001573  46.2251 271.0900 15.19162264  3668","CENTER_NAME":"EARTH","LAUNCH_DATE":"2021-12-18","REF_FRAME":"TEME","NORAD_CAT_ID":"50201","BSTAR":"-0.03663500000000","MEAN_MOTION_DOT":"-0.00726378","SITE":"AFWTR","EPHEMERIS_TYPE":"0","MEAN_ELEMENT_THEORY":"SGP4","RCS_SIZE":"LARGE"},{"ARG_OF_PERICENTER":"49.9408","MEAN_MOTION_DDOT":"0.0000000000000","EPOCH":"2022-04-06T22:00:00.999936","OBJECT_TYPE":"PAYLOAD","INCLINATION":"53.2173","RA_OF_ASC_NODE":"191.1343","MEAN_ANOMALY":"112.7321","PERIAPSIS":"525.999","CLASSIFICATION_TYPE":"U","FILE":"3391320","OBJECT_ID":"2021-125AY","TIME_SYSTEM":"UTC","APOAPSIS":"528.308","PERIOD":"95.177","TLE_LINE1":"1 50202U 21125AY  22096.91667824 -.00722604  00000-0 -43499-1 0  9995","ECCENTRICITY":"0.00016720","OBJECT_NAME":"STARLINK-3256","RCS_SIZE":"LARGE","MEAN_ELEMENT_THEORY":"SGP4","EPHEMERIS_TYPE":"0","SITE":"AFWTR","MEAN_MOTION_DOT":"-0.00722604","BSTAR":"-0.04349900000000","NORAD_CAT_ID":"50202","REF_FRAME":"TEME","LAUNCH_DATE":"2021-12-18","CENTER_NAME":"EARTH","TLE_LINE2":"2 50202  53.2173 191.1343 0001672  49.9408 112.7321 15.12968915  3652","ELEMENT_SET_NO":"999","MEAN_MOTION":"15.12968915","REV_AT_EPOCH":"365","GP_ID":"200627525","SEMIMAJOR_AXIS":"6905.289","DECAY_DATE":null,"COUNTRY_CODE":"US"}];
